ORBCOMM FM20            
1 25416U 98046D   25026.01394401  .00002506  00000+0  89094-3 0  9997
2 25416  44.9930 134.3198 0002281 236.1140 123.9491 14.36664228383812
ORBCOMM FM16            
1 25417U 98046E   25026.58603257  .00003353  00000+0  11410-2 0  9999
2 25417  44.9929 124.9421 0005420 279.8858  80.1379 14.38147684383861
ORBCOMM FM15            
1 25418U 98046F   25026.32005226  .00003087  00000+0  10610-2 0  9999
2 25418  44.9958 130.9389 0004871 277.4081  82.6213 14.37821713383826
ORBCOMM FM14            
1 25419U 98046G   25026.44067172  .00002973  00000+0  10175-2 0  9990
2 25419  44.9947 128.9859 0004229 265.8402  94.1963 14.38128139383800
ORBCOMM FM13            
1 25420U 98046H   25026.29945096  .00002738  00000+0  96139-3 0  9999
2 25420  44.9961 136.3277 0006095 267.4298  92.5852 14.37041191382820
ORBCOMM FM21            
1 25475U 98053A   25026.55515917  .00001836  00000+0  66357-3 0  9998
2 25475  45.0055 219.9676 0001379 196.4025 163.6778 14.36802958376876
ORBCOMM FM22            
1 25476U 98053B   25026.20108598  .00002597  00000+0  90304-3 0  9998
2 25476  45.0048 217.5593 0003204 210.5865 149.4797 14.37669861376834
ORBCOMM FM23            
1 25477U 98053C   25025.94548856  .00002102  00000+0  75114-3 0  9998
2 25477  45.0058 225.1458 0002281 203.1584 156.9161 14.36920413376932
